start=new Date('2022-08-26T00:00:00.000Z').valueOf();
sats=[{"CLASSIFICATION_TYPE":"U","OBJECT_ID":"2020-057AF","MEAN_ANOMALY":"273.2920","EPHEMERIS_TYPE":"0","BSTAR":"0.00000483430000","MEAN_MOTION_DOT":"-0.00000210","RCS_SIZE":"LARGE","MEAN_MOTION_DDOT":"0.0000000000000","DECAY_DATE":null,"ECCENTRICITY":"0.00016240","APOAPSIS":"548.326","PERIAPSIS":"546.077","SITE":"AFETR","LAUNCH_DATE":"2020-08-18","NORAD_CAT_ID":"46146","PERIOD":"95.592","MEAN_ELEMENT_THEORY":"SGP4","OBJECT_NAME":"STARLINK-1608","CENTER_NAME":"EARTH","TIME_SYSTEM":"UTC","COUNTRY_CODE":"US","OBJECT_TYPE":"PAYLOAD","ELEMENT_SET_NO":"999","SEMIMAJOR_AXIS":"6925.336","MEAN_MOTION":"15.06404032","ARG_OF_PERICENTER":"86.8255","EPOCH":"2022-08-25T08:25:30.547200","FILE":"3547226","GP_ID":"210969578","TLE_LINE1":"1 46146U 20057AF  22237.35104800 -.00000210  00000-0  48343-5 0  9993","INCLINATION":"53.0566","RA_OF_ASC_NODE":"358.1566","REF_FRAME":"TEME","TLE_LINE2":"2 46146  53.0566 358.1566 0001624  86.8255 273.2920 15.06404032111282","REV_AT_EPOCH":"11128"},{"REV_AT_EPOCH":"11260","TLE_LINE2":"2 46147  53.0572 356.1592 0001385  71.8107 288.3033 15.06396203112600","REF_FRAME":"TEME","TLE_LINE1":"1 46147U 20057AG  22237.79704852  .00000554  00000-0  56118-4 0  9993","RA_OF_ASC_NODE":"356.1592","INCLINATION":"53.0572","FILE":"3547674","GP_ID":"211003330","ARG_OF_PERICENTER":"71.8107","EPOCH":"2022-08-25T19:07:44.992128","MEAN_MOTION":"15.06396203","SEMIMAJOR_AXIS":"6925.360","ELEMENT_SET_NO":"999","COUNTRY_CODE":"US","OBJECT_TYPE":"PAYLOAD","TIME_SYSTEM":"UTC","CENTER_NAME":"EARTH","OBJECT_NAME":"STARLINK-1611","MEAN_ELEMENT_THEORY":"SGP4","PERIOD":"95.592","NORAD_CAT_ID":"46147","LAUNCH_DATE":"2020-08-18","PERIAPSIS":"546.266","SITE":"AFETR","DECAY_DATE":null,"APOAPSIS":"548.184","ECCENTRICITY":"0.00013850","MEAN_MOTION_DDOT":"0.0000000000000","RCS_SIZE":"LARGE","MEAN_MOTION_DOT":"0.00000554","BSTAR":"0.00005611800000","EPHEMERIS_TYPE":"0","OBJECT_ID":"2020-057AG","MEAN_ANOMALY":"288.3033","CLASSIFICATION_TYPE":"U"},{"MEAN_MOTION_DDOT":"0.0000000000000","RCS_SIZE":"LARGE","MEAN_MOTION_DOT":"-0.00000890","BSTAR":"-0.00004090000000","EPHEMERIS_TYPE":"0","OBJECT_ID":"2020-057AH","MEAN_ANOMALY":"297.6248","CLASSIFICATION_TYPE":"U","OBJECT_NAME":"STARLINK-1616","MEAN_ELEMENT_THEORY":"SGP4","PERIOD":"95.592","NORAD_CAT_ID":"46148","LAUNCH_DATE":"2020-08-18","PERIAPSIS":"546.644","SITE":"AFETR","DECAY_DATE":null,"ECCENTRICITY":"0.00008110","APOAPSIS":"547.767","ARG_OF_PERICENTER":"62.4824","EPOCH":"2022-08-25T16:04:38.287776","MEAN_MOTION":"15.06402612","SEMIMAJOR_AXIS":"6925.341","ELEMENT_SET_NO":"999","OBJECT_TYPE":"PAYLOAD","COUNTRY_CODE":"US","TIME_SYSTEM":"UTC","CENTER_NAME":"EARTH","REV_AT_EPOCH":"11226","TLE_LINE2":"2 46148  53.0556 336.7288 0000811  62.4824 297.6248 15.06402612112269","REF_FRAME":"TEME","TLE_LINE1":"1 46148U 20057AH  22237.66988759 -.00000890  00000-0 -40900-4 0  9997","RA_OF_ASC_NODE":"336.7288","INCLINATION":"53.0556","FILE":"3547284","GP_ID":"210975808"},{"LAUNCH_DATE":"2020-08-18","SITE":"AFETR","PERIAPSIS":"546.380","DECAY_DATE":null,"APOAPSIS":"548.100","ECCENTRICITY":"0.00012420","OBJECT_NAME":"STARLINK-1620","MEAN_ELEMENT_THEORY":"SGP4","PERIOD":"95.593","NORAD_CAT_ID":"46149","OBJECT_ID":"2020-057AJ","MEAN_ANOMALY":"275.5171","CLASSIFICATION_TYPE":"U","MEAN_MOTION_DDOT":"0.0000000000000","RCS_SIZE":"LARGE","BSTAR":"0.00000777270000","MEAN_MOTION_DOT":"-0.00000166","EPHEMERIS_TYPE":"0","REF_FRAME":"TEME","TLE_LINE1":"1 46149U 20057AJ  22237.81638488 -.00000166  00000-0  77727-5 0  9999","RA_OF_ASC_NODE":"336.0610","INCLINATION":"53.0566","FILE":"3547674","GP_ID":"211004820","REV_AT_EPOCH":"11290","TLE_LINE2":"2 46149  53.0566 336.0610 0001242  84.5960 275.5171 15.06391376112903","ELEMENT_SET_NO":"999","OBJECT_TYPE":"PAYLOAD","COUNTRY_CODE":"US","TIME_SYSTEM":"UTC","CENTER_NAME":"EARTH","ARG_OF_PERICENTER":"84.5960","EPOCH":"2022-08-25T19:35:35.653632","MEAN_MOTION":"15.06391376","SEMIMAJOR_AXIS":"6925.375"},{"LAUNCH_DATE":"2020-08-18","SITE":"AFETR","PERIAPSIS":"546.371","DECAY_DATE":null,"APOAPSIS":"548.050","ECCENTRICITY":"0.00012120","OBJECT_NAME":"STARLINK-1629","MEAN_ELEMENT_THEORY":"SGP4","PERIOD":"95.592","NORAD_CAT_ID":"46150","OBJECT_ID":"2020-057AK","MEAN_ANOMALY":"278.6765","CLASSIFICATION_TYPE":"U","MEAN_MOTION_DDOT":"0.0000000000000","RCS_SIZE":"LARGE","BSTAR":"0.00000694330000","MEAN_MOTION_DOT":"-0.00000178","EPHEMERIS_TYPE":"0","REF_FRAME":"TEME","TLE_LINE1":"1 46150U 20057AK  22237.48005621 -.00000178  00000-0  69433-5 0  9999","INCLINATION":"53.0570","RA_OF_ASC_NODE":"357.5736","FILE":"3547286","GP_ID":"210976082","REV_AT_EPOCH":"11196","TLE_LINE2":"2 46150  53.0570 357.5736 0001212  81.4362 278.6765 15.06401107111968","ELEMENT_SET_NO":"999","OBJECT_TYPE":"PAYLOAD","COUNTRY_CODE":"US","TIME_SYSTEM":"UTC","CENTER_NAME":"EARTH","EPOCH":"2022-08-25T11:31:16.856544","ARG_OF_PERICENTER":"81.4362","MEAN_MOTION":"15.06401107","SEMIMAJOR_AXIS":"6925.345"},{"MEAN_MOTION":"15.06403781","ARG_OF_PERICENTER":"96.1373","EPOCH":"2022-08-25T18:54:28.899936","SEMIMAJOR_AXIS":"6925.337","COUNTRY_CODE":"US","OBJECT_TYPE":"PAYLOAD","ELEMENT_SET_NO":"999","CENTER_NAME":"EARTH","TIME_SYSTEM":"UTC","TLE_LINE2":"2 46151  53.0551 336.1835 0001290  96.1373 263.9763 15.06403781111620","REV_AT_EPOCH":"11162","TLE_LINE1":"1 46151U 20057AL  22237.78783449  .00003681  00000-0  26588-3 0  9997","RA_OF_ASC_NODE":"336.1835","INCLINATION":"53.0551","REF_FRAME":"TEME","FILE":"3547674","GP_ID":"211003829","RCS_SIZE":"LARGE","MEAN_MOTION_DDOT":"0.0000000000000","EPHEMERIS_TYPE":"0","MEAN_MOTION_DOT":"0.00003681","BSTAR":"0.00026588000000","OBJECT_ID":"2020-057AL","MEAN_ANOMALY":"263.9763","CLASSIFICATION_TYPE":"U","MEAN_ELEMENT_THEORY":"SGP4","OBJECT_NAME":"STARLINK-1631","NORAD_CAT_ID":"46151","PERIOD":"95.592","PERIAPSIS":"546.309","SITE":"AFETR","LAUNCH_DATE":"2020-08-18","DECAY_DATE":null,"ECCENTRICITY":"0.00012900","APOAPSIS":"548.095"},{"MEAN_MOTION":"15.06394957","EPOCH":"2022-08-25T15:19:31.235808","ARG_OF_PERICENTER":"97.3484","SEMIMAJOR_AXIS":"6925.364","OBJECT_TYPE":"PAYLOAD","COUNTRY_CODE":"US","ELEMENT_SET_NO":"999","CENTER_NAME":"EARTH","TIME_SYSTEM":"UTC","TLE_LINE2":"2 46152  53.0556 356.8750 0001117  97.3484 262.7632 15.06394957111328","REV_AT_EPOCH":"11132","TLE_LINE1":"1 46152U 20057AM  22237.63855597 -.00000142  00000-0  93574-5 0  9997","RA_OF_ASC_NODE":"356.8750","INCLINATION":"53.0556","REF_FRAME":"TEME","FILE":"3547674","GP_ID":"211004575","RCS_SIZE":"LARGE","MEAN_MOTION_DDOT":"0.0000000000000","EPHEMERIS_TYPE":"0","MEAN_MOTION_DOT":"-0.00000142","BSTAR":"0.00000935740000","OBJECT_ID":"2020-057AM","MEAN_ANOMALY":"262.7632","CLASSIFICATION_TYPE":"U","MEAN_ELEMENT_THEORY":"SGP4","OBJECT_NAME":"STARLINK-1634","NORAD_CAT_ID":"46152","PERIOD":"95.592","PERIAPSIS":"546.455","SITE":"AFETR","LAUNCH_DATE":"2020-08-18","DECAY_DATE":null,"APOAPSIS":"548.003","ECCENTRICITY":"0.00011170"},{"REV_AT_EPOCH":"11160","TLE_LINE2":"2 46153  53.0552 336.7088 0001382  92.5891 267.5256 15.06402571111607","REF_FRAME":"TEME","RA_OF_ASC_NODE":"336.7088","INCLINATION":"53.0552","TLE_LINE1":"1 46153U 20057AN  22237.67357252  .00000014  00000-0  19843-4 0  9990","GP_ID":"211004320","FILE":"3547674","EPOCH":"2022-08-25T16:09:56.665728","ARG_OF_PERICENTER":"92.5891","MEAN_MOTION":"15.06402571","SEMIMAJOR_AXIS":"6925.341","ELEMENT_SET_NO":"999","OBJECT_TYPE":"PAYLOAD","COUNTRY_CODE":"US","TIME_SYSTEM":"UTC","CENTER_NAME":"EARTH","OBJECT_NAME":"STARLINK-1636","MEAN_ELEMENT_THEORY":"SGP4","PERIOD":"95.592","NORAD_CAT_ID":"46153","LAUNCH_DATE":"2020-08-18","PERIAPSIS":"546.249","SITE":"AFETR","ECCENTRICITY":"0.00013820","APOAPSIS":"548.163","DECAY_DATE":null,"MEAN_MOTION_DDOT":"0.0000000000000","RCS_SIZE":"LARGE","MEAN_MOTION_DOT":"0.00000014","BSTAR":"0.00001984300000","EPHEMERIS_TYPE":"0","MEAN_ANOMALY":"267.5256","OBJECT_ID":"2020-057AN","CLASSIFICATION_TYPE":"U"},{"REF_FRAME":"TEME","RA_OF_ASC_NODE":"347.8554","INCLINATION":"53.0550","TLE_LINE1":"1 46154U 20057AP  22237.41832534  .00000225  00000-0  34019-4 0  9990","GP_ID":"210969579","FILE":"3547226","REV_AT_EPOCH":"11143","TLE_LINE2":"2 46154  53.0550 347.8554 0001281  94.5529 265.5606 15.06392955111437","ELEMENT_SET_NO":"999","COUNTRY_CODE":"US","OBJECT_TYPE":"PAYLOAD","TIME_SYSTEM":"UTC","CENTER_NAME":"EARTH","ARG_OF_PERICENTER":"94.5529","EPOCH":"2022-08-25T10:02:23.309376","MEAN_MOTION":"15.06392955","SEMIMAJOR_AXIS":"6925.370","LAUNCH_DATE":"2020-08-18","SITE":"AFETR","PERIAPSIS":"546.348","APOAPSIS":"548.122","ECCENTRICITY":"0.00012810","DECAY_DATE":null,"OBJECT_NAME":"STARLINK-1642","MEAN_ELEMENT_THEORY":"SGP4","PERIOD":"95.593","NORAD_CAT_ID":"46154","MEAN_ANOMALY":"265.5606","OBJECT_ID":"2020-057AP","CLASSIFICATION_TYPE":"U","MEAN_MOTION_DDOT":"0.0000000000000","RCS_SIZE":"LARGE","BSTAR":"0.00003401900000","MEAN_MOTION_DOT":"0.00000225","EPHEMERIS_TYPE":"0"},{"OBJECT_NAME":"STARLINK-1667","MEAN_ELEMENT_THEORY":"SGP4","PERIOD":"95.592","NORAD_CAT_ID":"46155","LAUNCH_DATE":"2020-08-18","PERIAPSIS":"546.321","SITE":"AFETR","APOAPSIS":"548.072","ECCENTRICITY":"0.00012640","DECAY_DATE":null,"MEAN_MOTION_DDOT":"0.0000000000000","RCS_SIZE":"LARGE","MEAN_MOTION_DOT":"-0.00000013","BSTAR":"0.00001800900000","EPHEMERIS_TYPE":"0","MEAN_ANOMALY":"270.9729","OBJECT_ID":"2020-057AQ","CLASSIFICATION_TYPE":"U","REV_AT_EPOCH":"11309","TLE_LINE2":"2 46155  53.0557 317.7475 0001264  89.1405 270.9729 15.06405660113095","REF_FRAME":"TEME","RA_OF_ASC_NODE":"317.7475","INCLINATION":"53.0557","TLE_LINE1":"1 46155U 20057AQ  22237.44320347 -.00000013  00000-0  18009-4 0  9995","GP_ID":"210968328","FILE":"3547226","ARG_OF_PERICENTER":"89.1405","EPOCH":"2022-08-25T10:38:12.779808","MEAN_MOTION":"15.06405660","SEMIMAJOR_AXIS":"6925.331","ELEMENT_SET_NO":"999","OBJECT_TYPE":"PAYLOAD","COUNTRY_CODE":"US","TIME_SYSTEM":"UTC","CENTER_NAME":"EARTH"}];
